start=new Date('2023-01-06T00:00:00.000Z').valueOf();
sats=[{"TLE_LINE1":"1 47773U 21017BD  23005.73734412  .00001982  00000-0  15184-3 0  9992","MEAN_MOTION_DDOT":"0.0000000000000","SITE":"AFETR","MEAN_MOTION_DOT":"0.00001982","NORAD_CAT_ID":"47773","MEAN_ANOMALY":"319.9134","RA_OF_ASC_NODE":"24.3644","LAUNCH_DATE":"2021-03-04","SEMIMAJOR_AXIS":"6925.300","OBJECT_NAME":"STARLINK-2196","MEAN_ELEMENT_THEORY":"SGP4","EPOCH":"2023-01-05T17:41:46.531968","DECAY_DATE":null,"REV_AT_EPOCH":"10290","OBJECT_ID":"2021-017BD","TIME_SYSTEM":"UTC","ARG_OF_PERICENTER":"40.2018","FILE":"3732963","INCLINATION":"53.0539","TLE_LINE2":"2 47773  53.0539  24.3644 0002203  40.2018 319.9134 15.06415774102902","GP_ID":"222287498","CENTER_NAME":"EARTH","REF_FRAME":"TEME","BSTAR":"0.00015184000000","ELEMENT_SET_NO":"999","CLASSIFICATION_TYPE":"U","RCS_SIZE":"LARGE","PERIOD":"95.591","PERIAPSIS":"545.640","ECCENTRICITY":"0.00022030","COUNTRY_CODE":"US","MEAN_MOTION":"15.06415774","APOAPSIS":"548.691","OBJECT_TYPE":"PAYLOAD","EPHEMERIS_TYPE":"0"},{"PERIAPSIS":"545.370","PERIOD":"95.591","ECCENTRICITY":"0.00026040","APOAPSIS":"548.976","MEAN_MOTION":"15.06413267","COUNTRY_CODE":"US","OBJECT_TYPE":"PAYLOAD","EPHEMERIS_TYPE":"0","GP_ID":"222260796","BSTAR":"0.00031004000000","ELEMENT_SET_NO":"999","REF_FRAME":"TEME","CENTER_NAME":"EARTH","RCS_SIZE":"LARGE","CLASSIFICATION_TYPE":"U","ARG_OF_PERICENTER":"42.1673","FILE":"3732939","TIME_SYSTEM":"UTC","OBJECT_ID":"2021-017BE","REV_AT_EPOCH":"10285","TLE_LINE2":"2 47774  53.0547  26.1652 0002604  42.1673 317.9515 15.06413267102854","INCLINATION":"53.0547","SITE":"AFETR","MEAN_MOTION_DDOT":"0.0000000000000","TLE_LINE1":"1 47774U 21017BE  23005.33558072  .00004341  00000-0  31004-3 0  9996","NORAD_CAT_ID":"47774","MEAN_MOTION_DOT":"0.00004341","OBJECT_NAME":"STARLINK-2197","LAUNCH_DATE":"2021-03-04","RA_OF_ASC_NODE":"26.1652","SEMIMAJOR_AXIS":"6925.308","MEAN_ANOMALY":"317.9515","DECAY_DATE":null,"MEAN_ELEMENT_THEORY":"SGP4","EPOCH":"2023-01-05T08:03:14.174208"},{"PERIAPSIS":"545.996","PERIOD":"95.591","ECCENTRICITY":"0.00016810","COUNTRY_CODE":"US","APOAPSIS":"548.325","MEAN_MOTION":"15.06417308","OBJECT_TYPE":"PAYLOAD","EPHEMERIS_TYPE":"0","GP_ID":"222288495","REF_FRAME":"TEME","CENTER_NAME":"EARTH","BSTAR":"0.00028053000000","ELEMENT_SET_NO":"999","CLASSIFICATION_TYPE":"U","RCS_SIZE":"LARGE","OBJECT_ID":"2021-017BF","REV_AT_EPOCH":"10296","ARG_OF_PERICENTER":"54.6848","FILE":"3732963","TIME_SYSTEM":"UTC","TLE_LINE2":"2 47775  53.0558  24.3295 0001681  54.6848 305.4298 15.06417308102968","INCLINATION":"53.0558","MEAN_MOTION_DDOT":"0.0000000000000","TLE_LINE1":"1 47775U 21017BF  23005.74471516  .00003901  00000-0  28053-3 0  9990","SITE":"AFETR","MEAN_MOTION_DOT":"0.00003901","NORAD_CAT_ID":"47775","MEAN_ANOMALY":"305.4298","OBJECT_NAME":"STARLINK-2198","LAUNCH_DATE":"2021-03-04","RA_OF_ASC_NODE":"24.3295","SEMIMAJOR_AXIS":"6925.296","DECAY_DATE":null,"MEAN_ELEMENT_THEORY":"SGP4","EPOCH":"2023-01-05T17:52:23.389824"},{"MEAN_ANOMALY":"324.7666","LAUNCH_DATE":"2021-03-04","SEMIMAJOR_AXIS":"6925.297","RA_OF_ASC_NODE":"15.6996","OBJECT_NAME":"STARLINK-2209","EPOCH":"2023-01-05T10:33:10.685664","MEAN_ELEMENT_THEORY":"SGP4","DECAY_DATE":null,"TLE_LINE1":"1 47776U 21017BG  23005.43970701  .00006396  00000-0  44770-3 0  9992","MEAN_MOTION_DDOT":"0.0000000000000","SITE":"AFETR","MEAN_MOTION_DOT":"0.00006396","NORAD_CAT_ID":"47776","INCLINATION":"53.0543","TLE_LINE2":"2 47776  53.0543  15.6996 0002339  35.3478 324.7666 15.06416718103025","REV_AT_EPOCH":"10302","OBJECT_ID":"2021-017BG","TIME_SYSTEM":"UTC","FILE":"3732939","ARG_OF_PERICENTER":"35.3478","CLASSIFICATION_TYPE":"U","RCS_SIZE":"LARGE","GP_ID":"222261798","CENTER_NAME":"EARTH","REF_FRAME":"TEME","ELEMENT_SET_NO":"999","BSTAR":"0.00044770000000","COUNTRY_CODE":"US","MEAN_MOTION":"15.06416718","APOAPSIS":"548.782","EPHEMERIS_TYPE":"0","OBJECT_TYPE":"PAYLOAD","PERIOD":"95.591","PERIAPSIS":"545.542","ECCENTRICITY":"0.00023390"},{"CLASSIFICATION_TYPE":"U","RCS_SIZE":"LARGE","REF_FRAME":"TEME","CENTER_NAME":"EARTH","BSTAR":"0.00028378000000","ELEMENT_SET_NO":"999","GP_ID":"222287999","OBJECT_TYPE":"PAYLOAD","EPHEMERIS_TYPE":"0","COUNTRY_CODE":"US","APOAPSIS":"549.086","MEAN_MOTION":"15.06418469","ECCENTRICITY":"0.00027860","PERIAPSIS":"545.228","PERIOD":"95.591","DECAY_DATE":null,"EPOCH":"2023-01-05T17:00:37.963872","MEAN_ELEMENT_THEORY":"SGP4","MEAN_ANOMALY":"326.5738","OBJECT_NAME":"STARLINK-2210","RA_OF_ASC_NODE":"14.4890","LAUNCH_DATE":"2021-03-04","SEMIMAJOR_AXIS":"6925.292","MEAN_MOTION_DOT":"0.00003950","NORAD_CAT_ID":"47777","MEAN_MOTION_DDOT":"0.0000000000000","TLE_LINE1":"1 47777U 21017BH  23005.70877273  .00003950  00000-0  28378-3 0  9992","SITE":"AFETR","TLE_LINE2":"2 47777  53.0545  14.4890 0002786  33.5427 326.5738 15.06418469103067","INCLINATION":"53.0545","OBJECT_ID":"2021-017BH","REV_AT_EPOCH":"10306","ARG_OF_PERICENTER":"33.5427","FILE":"3732963","TIME_SYSTEM":"UTC"},{"INCLINATION":"53.0560","TLE_LINE2":"2 47778  53.0560  14.3436 0002130  36.5082 323.6052 15.06418145103061","REV_AT_EPOCH":"10306","OBJECT_ID":"2021-017BJ","TIME_SYSTEM":"UTC","FILE":"3732963","ARG_OF_PERICENTER":"36.5082","MEAN_ANOMALY":"323.6052","SEMIMAJOR_AXIS":"6925.293","LAUNCH_DATE":"2021-03-04","RA_OF_ASC_NODE":"14.3436","OBJECT_NAME":"STARLINK-2211","EPOCH":"2023-01-05T17:48:24.583680","MEAN_ELEMENT_THEORY":"SGP4","DECAY_DATE":null,"TLE_LINE1":"1 47778U 21017BJ  23005.74195120  .00001337  00000-0  10860-3 0  9995","MEAN_MOTION_DDOT":"0.0000000000000","SITE":"AFETR","MEAN_MOTION_DOT":"0.00001337","NORAD_CAT_ID":"47778","COUNTRY_CODE":"US","MEAN_MOTION":"15.06418145","APOAPSIS":"548.633","OBJECT_TYPE":"PAYLOAD","EPHEMERIS_TYPE":"0","PERIOD":"95.591","PERIAPSIS":"545.683","ECCENTRICITY":"0.00021300","CLASSIFICATION_TYPE":"U","RCS_SIZE":"LARGE","GP_ID":"222288750","CENTER_NAME":"EARTH","REF_FRAME":"TEME","BSTAR":"0.00010860000000","ELEMENT_SET_NO":"999"},{"FILE":"3732963","ARG_OF_PERICENTER":"74.7659","TIME_SYSTEM":"UTC","OBJECT_ID":"2021-017BK","REV_AT_EPOCH":"10335","TLE_LINE2":"2 47779  53.0559 354.1830 0002533  74.7659 285.3614 15.16131028103357","INCLINATION":"53.0559","NORAD_CAT_ID":"47779","MEAN_MOTION_DOT":"-0.00019798","SITE":"AFETR","MEAN_MOTION_DDOT":"0.0000000000000","TLE_LINE1":"1 47779U 21017BK  23005.65664439 -.00019798  00000-0 -10015-2 0  9993","DECAY_DATE":null,"MEAN_ELEMENT_THEORY":"SGP4","EPOCH":"2023-01-05T15:45:34.075296","OBJECT_NAME":"STARLINK-2212","SEMIMAJOR_AXIS":"6895.684","LAUNCH_DATE":"2021-03-04","RA_OF_ASC_NODE":"354.1830","MEAN_ANOMALY":"285.3614","ECCENTRICITY":"0.00025330","PERIAPSIS":"515.802","PERIOD":"94.979","OBJECT_TYPE":"PAYLOAD","EPHEMERIS_TYPE":"0","APOAPSIS":"519.296","MEAN_MOTION":"15.16131028","COUNTRY_CODE":"US","BSTAR":"-0.00100150000000","ELEMENT_SET_NO":"999","REF_FRAME":"TEME","CENTER_NAME":"EARTH","GP_ID":"222288996","RCS_SIZE":"LARGE","CLASSIFICATION_TYPE":"U"},{"CLASSIFICATION_TYPE":"U","RCS_SIZE":"LARGE","GP_ID":"222262299","CENTER_NAME":"EARTH","REF_FRAME":"TEME","BSTAR":"0.00106130000000","ELEMENT_SET_NO":"999","COUNTRY_CODE":"US","MEAN_MOTION":"15.06444291","APOAPSIS":"548.820","OBJECT_TYPE":"PAYLOAD","EPHEMERIS_TYPE":"0","PERIOD":"95.589","PERIAPSIS":"545.336","ECCENTRICITY":"0.00025150","MEAN_ANOMALY":"324.0008","RA_OF_ASC_NODE":"15.4182","LAUNCH_DATE":"2021-03-04","SEMIMAJOR_AXIS":"6925.213","OBJECT_NAME":"STARLINK-2213","MEAN_ELEMENT_THEORY":"SGP4","EPOCH":"2023-01-05T12:03:23.455584","DECAY_DATE":null,"TLE_LINE1":"1 47780U 21017BL  23005.50235481  .00015581  00000-0  10613-2 0  9998","MEAN_MOTION_DDOT":"0.0000000000000","SITE":"AFETR","MEAN_MOTION_DOT":"0.00015581","NORAD_CAT_ID":"47780","INCLINATION":"53.0567","TLE_LINE2":"2 47780  53.0567  15.4182 0002515  36.1151 324.0008 15.06444291103068","REV_AT_EPOCH":"10306","OBJECT_ID":"2021-017BL","TIME_SYSTEM":"UTC","FILE":"3732939","ARG_OF_PERICENTER":"36.1151"},{"BSTAR":"-0.00060024000000","ELEMENT_SET_NO":"999","REF_FRAME":"TEME","CENTER_NAME":"EARTH","GP_ID":"222287499","RCS_SIZE":"LARGE","CLASSIFICATION_TYPE":"U","ECCENTRICITY":"0.00010990","PERIAPSIS":"546.513","PERIOD":"95.593","EPHEMERIS_TYPE":"0","OBJECT_TYPE":"PAYLOAD","APOAPSIS":"548.036","MEAN_MOTION":"15.06380119","COUNTRY_CODE":"US","NORAD_CAT_ID":"47781","MEAN_MOTION_DOT":"-0.00009206","SITE":"AFETR","MEAN_MOTION_DDOT":"0.0000000000000","TLE_LINE1":"1 47781U 21017BM  23005.73458606 -.00009206  00000-0 -60024-3 0  9991","DECAY_DATE":null,"MEAN_ELEMENT_THEORY":"SGP4","EPOCH":"2023-01-05T17:37:48.235584","OBJECT_NAME":"STARLINK-2223","RA_OF_ASC_NODE":"14.3737","LAUNCH_DATE":"2021-03-04","SEMIMAJOR_AXIS":"6925.409","MEAN_ANOMALY":"321.7920","FILE":"3732963","ARG_OF_PERICENTER":"38.3146","TIME_SYSTEM":"UTC","OBJECT_ID":"2021-017BM","REV_AT_EPOCH":"10305","TLE_LINE2":"2 47781  53.0576  14.3737 0001099  38.3146 321.7920 15.06380119103051","INCLINATION":"53.0576"},{"RCS_SIZE":"LARGE","CLASSIFICATION_TYPE":"U","BSTAR":"0.00121200000000","ELEMENT_SET_NO":"999","CENTER_NAME":"EARTH","REF_FRAME":"TEME","GP_ID":"222260797","EPHEMERIS_TYPE":"0","OBJECT_TYPE":"PAYLOAD","MEAN_MOTION":"15.06458534","APOAPSIS":"548.351","COUNTRY_CODE":"US","ECCENTRICITY":"0.00019020","PERIOD":"95.588","PERIAPSIS":"545.717","EPOCH":"2023-01-05T13:17:41.435520","MEAN_ELEMENT_THEORY":"SGP4","DECAY_DATE":null,"LAUNCH_DATE":"2021-03-11","RA_OF_ASC_NODE":"55.1849","SEMIMAJOR_AXIS":"6925.169","OBJECT_NAME":"STARLINK-2257","MEAN_ANOMALY":"313.7642","NORAD_CAT_ID":"47787","MEAN_MOTION_DOT":"0.00017846","SITE":"AFETR","TLE_LINE1":"1 47787U 21018A   23005.55395180  .00017846  00000-0  12120-2 0  9995","MEAN_MOTION_DDOT":"0.0000000000000","INCLINATION":"53.0553","TLE_LINE2":"2 47787  53.0553  55.1849 0001902  46.3505 313.7642 15.06458534101888","TIME_SYSTEM":"UTC","FILE":"3732939","ARG_OF_PERICENTER":"46.3505","REV_AT_EPOCH":"10188","OBJECT_ID":"2021-018A"}];
